{"spaceTrack":{"CCSDS_OMM_VERS":"2.0","COMMENT":"GENERATED VIA SPACE-TRACK.ORG API","CREATION_DATE":"2022-07-25T02:25:12","ORIGINATOR":"18 SPCS","OBJECT_NAME":"STARLINK-4071","OBJECT_ID":"2022-053R","CENTER_NAME":"EARTH","REF_FRAME":"TEME","TIME_SYSTEM":"UTC","MEAN_ELEMENT_THEORY":"SGP4","EPOCH":"2022-07-24T22:00:00.999936","MEAN_MOTION":15.08843268,"ECCENTRICITY":0.0001798,"INCLINATION":53.2199,"RA_OF_ASC_NODE":336.7544,"ARG_OF_PERICENTER":42.0857,"MEAN_ANOMALY":38.9295,"EPHEMERIS_TYPE":0,"CLASSIFICATION_TYPE":"U","NORAD_CAT_ID":52671,"ELEMENT_SET_NO":999,"REV_AT_EPOCH":130,"BSTAR":-0.0018384,"MEAN_MOTION_DOT":-0.0002943,"MEAN_MOTION_DDOT":0,"SEMIMAJOR_AXIS":6917.87,"PERIOD":95.437,"APOAPSIS":540.979,"PERIAPSIS":538.492,"OBJECT_TYPE":"PAYLOAD","RCS_SIZE":"LARGE","COUNTRY_CODE":"US","LAUNCH_DATE":"2022-05-18","SITE":"AFETR","DECAY_DATE":null,"DECAYED":0,"FILE":3521124,"GP_ID":208802129,"TLE_LINE0":"0 STARLINK-4071","TLE_LINE1":"1 52671U 22053R   22205.91667824 -.00029430  00000-0 -18384-2 0  9993","TLE_LINE2":"2 52671  53.2199 336.7544 0001798  42.0857  38.9295 15.08843268  1300"},"height_km":545.3694340677775,"latitude":51.28133284188252,"launch":"62615ebc0ec008379be596fa","longitude":-91.70156548029713,"velocity_kms":7.595989298542836,"version":"v1.5","id":"628ea116a8973c1694df189b"}